{
"type": "FeatureCollection",
"name": "Majoreni BMU Sites",
"crs": { "type": "name", "properties": { "name": "urn:ogc:def:crs:EPSG::4979" } },
"features": [
{ "type": "Feature", "properties": { "OBJECTID": 1, "Name": "Msojo", "AltMode": 0, "Base": 0, "Clamped": -1, "PopupInfo": null, "Shape_Leng": 0.0138895105625, "Shape_Le_1": 0.013889511144, "Shape_Area": 1.3484476006700001e-05 }, "geometry": { "type": "Polygon", "coordinates": [ [ [ 39.283590736823101, -4.64683385000211, 0.0 ], [ 39.281698075805593, -4.64627995665461, 0.0 ], [ 39.281716493021804, -4.645060888748958, 0.0 ], [ 39.281937638111572, -4.644073453826763, 0.0 ], [ 39.282628001780893, -4.643297439625087, 0.0 ], [ 39.283408702349789, -4.643101765134304, 0.0 ], [ 39.284545975116714, -4.643264630558178, 0.0 ], [ 39.285788387624052, -4.643718547173194, 0.0 ], [ 39.286759950411408, -4.645186371154068, 0.0 ], [ 39.285046699645534, -4.646372218103352, 0.0 ], [ 39.283590736823101, -4.64683385000211, 0.0 ] ] ] } },
{ "type": "Feature", "properties": { "OBJECTID": 2, "Name": "Mlimani", "AltMode": 0, "Base": 0, "Clamped": -1, "PopupInfo": null, "Shape_Leng": 0.022807732739200001, "Shape_Le_1": 0.022807732305200001, "Shape_Area": 3.3809865441400003e-05 }, "geometry": { "type": "Polygon", "coordinates": [ [ [ 39.287000221383153, -4.641148113894303, 0.0 ], [ 39.286765992056928, -4.639812897647062, 0.0 ], [ 39.28722835330592, -4.638741371616959, 0.0 ], [ 39.287630371844216, -4.637882910268047, 0.0 ], [ 39.288873326642772, -4.637716123800033, 0.0 ], [ 39.290240291656175, -4.638313151330806, 0.0 ], [ 39.290334494741217, -4.638346134866197, 0.0 ], [ 39.291461198675449, -4.639650852404884, 0.0 ], [ 39.291532381814022, -4.639811894903005, 0.0 ], [ 39.291536679674095, -4.639876191932672, 0.0 ], [ 39.292164948753452, -4.642205336207269, 0.0 ], [ 39.292127914671596, -4.64393591061372, 0.0 ], [ 39.291900734231547, -4.645323263257922, 0.0 ], [ 39.291411625346313, -4.64650542478546, 0.0 ], [ 39.290575409627479, -4.646704873730869, 0.0 ], [ 39.289308681250702, -4.645556522215657, 0.0 ], [ 39.287323603201799, -4.643063221990076, 0.0 ], [ 39.287000221383153, -4.641148113894303, 0.0 ] ] ] } },
{ "type": "Feature", "properties": { "OBJECTID": 3, "Name": "Bumbu", "AltMode": 0, "Base": 0, "Clamped": -1, "PopupInfo": null, "Shape_Leng": 0.0090283249444900009, "Shape_Le_1": 0.0090283257103699992, "Shape_Area": 5.6176406578499999e-06 }, "geometry": { "type": "Polygon", "coordinates": [ [ [ 39.298945638230691, -4.613940059785875, 0.0 ], [ 39.300467016839434, -4.613717929039126, 0.0 ], [ 39.3016433480621, -4.614143062852008, 0.0 ], [ 39.301851922428341, -4.614858864744747, 0.0 ], [ 39.301790193862416, -4.615459572301347, 0.0 ], [ 39.301518166030576, -4.616163695598004, 0.0 ], [ 39.3012577574396, -4.616432859089116, 0.0 ], [ 39.300868342000456, -4.616414955385835, 0.0 ], [ 39.300317824707918, -4.616325333447321, 0.0 ], [ 39.299642783687545, -4.615640766807871, 0.0 ], [ 39.299606699289768, -4.615622672448353, 0.0 ], [ 39.299205852568093, -4.614767514309278, 0.0 ], [ 39.298945638230691, -4.613940059785875, 0.0 ] ] ] } },
{ "type": "Feature", "properties": { "OBJECTID": 4, "Name": "Bumbu_ya_nje", "AltMode": 0, "Base": 0, "Clamped": -1, "PopupInfo": null, "Shape_Leng": 0.0132453222753, "Shape_Le_1": 0.013245323448500001, "Shape_Area": 1.1556305215199999e-05 }, "geometry": { "type": "Polygon", "coordinates": [ [ [ 39.301568424643108, -4.630133482773942, 0.0 ], [ 39.301205882745364, -4.629119590696519, 0.0 ], [ 39.301001476736815, -4.628155005748852, 0.0 ], [ 39.300838644587827, -4.627169070895832, 0.0 ], [ 39.301073276810314, -4.626465804653094, 0.0 ], [ 39.302239765852562, -4.626818697724673, 0.0 ], [ 39.303327098366935, -4.627491666706987, 0.0 ], [ 39.304295546802109, -4.628735965092687, 0.0 ], [ 39.304435998422662, -4.629993113891032, 0.0 ], [ 39.304010602007736, -4.631032874067841, 0.0 ], [ 39.303234533846705, -4.63128335504274, 0.0 ], [ 39.302341452196288, -4.631124273066689, 0.0 ], [ 39.301568424643108, -4.630133482773942, 0.0 ] ] ] } },
{ "type": "Feature", "properties": { "OBJECTID": 5, "Name": "Rekeoni", "AltMode": 0, "Base": 0, "Clamped": -1, "PopupInfo": null, "Shape_Leng": 0.0021410804404299998, "Shape_Le_1": 0.0021410809431000001, "Shape_Area": 3.0496575281700002e-07 }, "geometry": { "type": "Polygon", "coordinates": [ [ [ 39.248695706841431, -4.584473560706215, 0.0 ], [ 39.248678054948357, -4.584050055565569, 0.0 ], [ 39.248782833161272, -4.583994543113647, 0.0 ], [ 39.248933029835484, -4.584033126727377, 0.0 ], [ 39.249077903422574, -4.584113738358269, 0.0 ], [ 39.249133796287708, -4.584300477185252, 0.0 ], [ 39.249156982608724, -4.584493595802769, 0.0 ], [ 39.249169020034287, -4.584680747418531, 0.0 ], [ 39.249094978850223, -4.584764572327117, 0.0 ], [ 39.24897310902179, -4.584794722098707, 0.0 ], [ 39.248813436191199, -4.584745495907839, 0.0 ], [ 39.248695706841431, -4.584473560706215, 0.0 ] ] ] } },
{ "type": "Feature", "properties": { "OBJECTID": 6, "Name": "Tunga", "AltMode": 0, "Base": 0, "Clamped": -1, "PopupInfo": null, "Shape_Leng": 0.0039982058527900004, "Shape_Le_1": 0.0039982062024699998, "Shape_Area": 1.0204645435199999e-06 }, "geometry": { "type": "Polygon", "coordinates": [ [ [ 39.254724998360018, -4.587963378107361, 0.0 ], [ 39.254647493886807, -4.587461608566343, 0.0 ], [ 39.254787378934452, -4.587320342160012, 0.0 ], [ 39.255089070903978, -4.587388032331774, 0.0 ], [ 39.25539208487686, -4.587508627820853, 0.0 ], [ 39.255533798246233, -4.587719315593915, 0.0 ], [ 39.255581302235385, -4.587976465941097, 0.0 ], [ 39.255599739236629, -4.588513317135835, 0.0 ], [ 39.255462785079544, -4.588808658093058, 0.0 ], [ 39.255174115293244, -4.588831767971669, 0.0 ], [ 39.254896213989127, -4.588446760109832, 0.0 ], [ 39.254893443177934, -4.588416495225033, 0.0 ], [ 39.254724998360018, -4.587963378107361, 0.0 ] ] ] } },
{ "type": "Feature", "properties": { "OBJECTID": 7, "Name": "Vijibweni", "AltMode": 0, "Base": 0, "Clamped": -1, "PopupInfo": null, "Shape_Leng": 0.0035700908665100002, "Shape_Le_1": 0.0035700908410800001, "Shape_Area": 9.3028784281999995e-07 }, "geometry": { "type": "Polygon", "coordinates": [ [ [ 39.26385824865929, -4.58810656456626, 0.0 ], [ 39.26374383061335, -4.58770463056419, 0.0 ], [ 39.26374484504862, -4.587495215331899, 0.0 ], [ 39.263853830290088, -4.587234645762237, 0.0 ], [ 39.264070939222506, -4.587009535561549, 0.0 ], [ 39.264443633566884, -4.58718622716259, 0.0 ], [ 39.264657951903018, -4.587524366855973, 0.0 ], [ 39.264766027929909, -4.587837034151732, 0.0 ], [ 39.264638134442407, -4.588143829773855, 0.0 ], [ 39.264222989399514, -4.588317758657581, 0.0 ], [ 39.26385824865929, -4.58810656456626, 0.0 ] ] ] } },
{ "type": "Feature", "properties": { "OBJECTID": 8, "Name": "Sii_ya_ndani", "AltMode": 0, "Base": 0, "Clamped": -1, "PopupInfo": null, "Shape_Leng": 0.019220296794099999, "Shape_Le_1": 0.0192202965887, "Shape_Area": 2.0016995586299999e-05 }, "geometry": { "type": "Polygon", "coordinates": [ [ [ 39.269510985043951, -4.630393641353407, 0.0 ], [ 39.274615561259225, -4.635335705578314, 0.0 ], [ 39.274066646558538, -4.637270882944847, 0.0 ], [ 39.272705455192636, -4.637118787801796, 0.0 ], [ 39.271794083130487, -4.636996923369281, 0.0 ], [ 39.27053899467893, -4.636600455446626, 0.0 ], [ 39.270037136104975, -4.635705752318586, 0.0 ], [ 39.269530036282219, -4.634537844146166, 0.0 ], [ 39.269189936966086, -4.632877621904697, 0.0 ], [ 39.269510985043951, -4.630393641353407, 0.0 ] ] ] } },
{ "type": "Feature", "properties": { "OBJECTID": 9, "Name": "Kifunguni", "AltMode": 0, "Base": 0, "Clamped": -1, "PopupInfo": null, "Shape_Leng": 0.021941283388, "Shape_Le_1": 0.0219412838847, "Shape_Area": 3.3110001898799999e-05 }, "geometry": { "type": "Polygon", "coordinates": [ [ [ 39.277746264078871, -4.636565353108494, 0.0 ], [ 39.277209672788217, -4.6348436693998, 0.0 ], [ 39.277254335819009, -4.633704749074866, 0.0 ], [ 39.277528786424398, -4.632607103135228, 0.0 ], [ 39.278011664806513, -4.631483578304426, 0.0 ], [ 39.278561043557374, -4.631163222704515, 0.0 ], [ 39.279229062671163, -4.63094879375177, 0.0 ], [ 39.280010801957019, -4.631021503039904, 0.0 ], [ 39.281183268792859, -4.631522645753478, 0.0 ], [ 39.282355214921267, -4.632403675589103, 0.0 ], [ 39.282492829180796, -4.63435036517717, 0.0 ], [ 39.282404083181973, -4.636250522943214, 0.0 ], [ 39.28195340862294, -4.637826815954725, 0.0 ], [ 39.28127878039146, -4.639379044906946, 0.0 ], [ 39.279466134754387, -4.638470270086827, 0.0 ], [ 39.277746264078871, -4.636565353108494, 0.0 ] ] ] } },
{ "type": "Feature", "properties": { "OBJECTID": 10, "Name": "Nyamani_ya_ndani", "AltMode": 0, "Base": 0, "Clamped": -1, "PopupInfo": null, "Shape_Leng": 0.0142742247828, "Shape_Le_1": 0.014274225986900001, "Shape_Area": 1.4218667400200001e-05 }, "geometry": { "type": "Polygon", "coordinates": [ [ [ 39.295608544598679, -4.634761357150865, 0.0 ], [ 39.293679606728517, -4.632214566149287, 0.0 ], [ 39.294328663636975, -4.631344994575784, 0.0 ], [ 39.2955378264096, -4.630759919034972, 0.0 ], [ 39.29691137895702, -4.630712615594689, 0.0 ], [ 39.298125323424983, -4.63139866971278, 0.0 ], [ 39.298168121261824, -4.633316233857045, 0.0 ], [ 39.298159735983063, -4.63350493500468, 0.0 ], [ 39.297716084229933, -4.635086725571853, 0.0 ], [ 39.295608544598679, -4.634761357150865, 0.0 ] ] ] } },
{ "type": "Feature", "properties": { "OBJECTID": 11, "Name": "Nyamani_ya_juu", "AltMode": 0, "Base": 0, "Clamped": -1, "PopupInfo": null, "Shape_Leng": 0.0122016302594, "Shape_Le_1": 0.0122016311813, "Shape_Area": 1.02991501681e-05 }, "geometry": { "type": "Polygon", "coordinates": [ [ [ 39.287535793741938, -4.632350086787028, 0.0 ], [ 39.286137320081309, -4.63143091670338, 0.0 ], [ 39.285768981153637, -4.630005608172212, 0.0 ], [ 39.285799580586229, -4.62885373311326, 0.0 ], [ 39.286381712645948, -4.628245700578589, 0.0 ], [ 39.287617158105434, -4.628603336674587, 0.0 ], [ 39.288638534340919, -4.629310919663169, 0.0 ], [ 39.289061502586321, -4.630652757618634, 0.0 ], [ 39.289099686901068, -4.632208303270545, 0.0 ], [ 39.287535793741938, -4.632350086787028, 0.0 ] ] ] } },
{ "type": "Feature", "properties": { "OBJECTID": 12, "Name": "Magoye", "AltMode": 0, "Base": 0, "Clamped": -1, "PopupInfo": null, "Shape_Leng": 0.0182527497836, "Shape_Le_1": 0.0182527507668, "Shape_Area": 2.3708443579800001e-05 }, "geometry": { "type": "Polygon", "coordinates": [ [ [ 39.301861013674909, -4.640600255897027, 0.0 ], [ 39.302391773761428, -4.639130709714436, 0.0 ], [ 39.303092935590541, -4.638589918589844, 0.0 ], [ 39.303975217282527, -4.638756773406328, 0.0 ], [ 39.304757255143272, -4.639295727215995, 0.0 ], [ 39.305500423405874, -4.640033168595835, 0.0 ], [ 39.306016499361988, -4.640640011327434, 0.0 ], [ 39.30653385595275, -4.641715132847082, 0.0 ], [ 39.306904513332654, -4.643115177623315, 0.0 ], [ 39.305881905025956, -4.644328839704144, 0.0 ], [ 39.30419578590687, -4.644516102835837, 0.0 ], [ 39.302871587254003, -4.644925358218643, 0.0 ], [ 39.301474843888968, -4.642962119306333, 0.0 ], [ 39.301861013674909, -4.640600255897027, 0.0 ] ] ] } },
{ "type": "Feature", "properties": { "OBJECTID": 13, "Name": "Mashuu", "AltMode": 0, "Base": 0, "Clamped": -1, "PopupInfo": null, "Shape_Leng": 0.0136747850849, "Shape_Le_1": 0.013674785274399999, "Shape_Area": 1.36912801429e-05 }, "geometry": { "type": "Polygon", "coordinates": [ [ [ 39.300394235605552, -4.637926826861531, 0.0 ], [ 39.299308296141021, -4.636515976730891, 0.0 ], [ 39.29914245486043, -4.635255556198899, 0.0 ], [ 39.299434570848803, -4.633747384134438, 0.0 ], [ 39.30080564756264, -4.633598120057172, 0.0 ], [ 39.302230608955483, -4.634080847353175, 0.0 ], [ 39.302961397150796, -4.63507270244321, 0.0 ], [ 39.302995537214315, -4.636870878887919, 0.0 ], [ 39.302369125234975, -4.637891503290177, 0.0 ], [ 39.300394235605552, -4.637926826861531, 0.0 ] ] ] } },
{ "type": "Feature", "properties": { "OBJECTID": 14, "Name": "Matale", "AltMode": 0, "Base": 0, "Clamped": -1, "PopupInfo": null, "Shape_Leng": 0.0245673042378, "Shape_Le_1": 0.024567304095199999, "Shape_Area": 4.1836312683e-05 }, "geometry": { "type": "Polygon", "coordinates": [ [ [ 39.27271009119778, -4.64534869698474, 0.0 ], [ 39.272621525962677, -4.643837138972742, 0.0 ], [ 39.272436012911726, -4.642541741108403, 0.0 ], [ 39.272717990842636, -4.641514774687039, 0.0 ], [ 39.273457417026236, -4.640620631836669, 0.0 ], [ 39.274921643718926, -4.6403574191595, 0.0 ], [ 39.276208199448888, -4.641143871792224, 0.0 ], [ 39.277483359869223, -4.642614508852432, 0.0 ], [ 39.278491195012691, -4.644615259386683, 0.0 ], [ 39.278963177208936, -4.64658519914758, 0.0 ], [ 39.279175394728725, -4.647862813817767, 0.0 ], [ 39.278385905984806, -4.649047881954118, 0.0 ], [ 39.276848150721605, -4.6491456040863, 0.0 ], [ 39.27487121603383, -4.648458495962757, 0.0 ], [ 39.27336824924538, -4.647294810107326, 0.0 ], [ 39.272735094149311, -4.645521998141646, 0.0 ], [ 39.272730099314686, -4.645487377840141, 0.0 ], [ 39.27271009119778, -4.64534869698474, 0.0 ] ] ] } },
{ "type": "Feature", "properties": { "OBJECTID": 15, "Name": "Mwakiandani", "AltMode": 0, "Base": 0, "Clamped": -1, "PopupInfo": null, "Shape_Leng": 0.0073395379409600002, "Shape_Le_1": 0.00733953729678, "Shape_Area": 3.49163039727e-06 }, "geometry": { "type": "Polygon", "coordinates": [ [ [ 39.270078662300477, -4.588743816074214, 0.0 ], [ 39.27088200959713, -4.588475255128856, 0.0 ], [ 39.27189739814645, -4.588921853061038, 0.0 ], [ 39.272581054672003, -4.589604256830967, 0.0 ], [ 39.272600013280055, -4.590167592160583, 0.0 ], [ 39.272274456001412, -4.590659232637449, 0.0 ], [ 39.271631217706556, -4.590722910034231, 0.0 ], [ 39.271050778170945, -4.590167610147034, 0.0 ], [ 39.270473827105491, -4.589800193923736, 0.0 ], [ 39.270453286589941, -4.589778472598368, 0.0 ], [ 39.270078662300477, -4.588743816074214, 0.0 ] ] ] } },
{ "type": "Feature", "properties": { "OBJECTID": 16, "Name": "Lekeoni", "AltMode": 0, "Base": 0, "Clamped": -1, "PopupInfo": null, "Shape_Leng": 0.0061338407677899998, "Shape_Le_1": 0.0061338406836500001, "Shape_Area": 2.4081409602200001e-06 }, "geometry": { "type": "Polygon", "coordinates": [ [ [ 39.286281937361593, -4.621482690873449, 0.0 ], [ 39.287297328608872, -4.621030834605278, 0.0 ], [ 39.288295180378327, -4.620735391125379, 0.0 ], [ 39.288503106333337, -4.620999112818765, 0.0 ], [ 39.288509119200569, -4.621040862945449, 0.0 ], [ 39.288628765005569, -4.621400927210971, 0.0 ], [ 39.288627865683509, -4.621411079657548, 0.0 ], [ 39.28854467929358, -4.621830905671686, 0.0 ], [ 39.288197294569557, -4.622045868821715, 0.0 ], [ 39.287985397208388, -4.622209651554101, 0.0 ], [ 39.287657613208353, -4.62222888535473, 0.0 ], [ 39.287277486866572, -4.622209871888003, 0.0 ], [ 39.287040597345765, -4.622238630408447, 0.0 ], [ 39.286689029874879, -4.622133258642918, 0.0 ], [ 39.286508419927713, -4.622017298259664, 0.0 ], [ 39.286281937361593, -4.621482690873449, 0.0 ] ] ] } },
{ "type": "Feature", "properties": { "OBJECTID": 17, "Name": "Smati", "AltMode": 0, "Base": 0, "Clamped": -1, "PopupInfo": null, "Shape_Leng": 0.0133322353213, "Shape_Le_1": 0.0133322352152, "Shape_Area": 1.1584140364200001e-05 }, "geometry": { "type": "Polygon", "coordinates": [ [ [ 39.29203511902557, -4.623424210259031, 0.0 ], [ 39.293836782141852, -4.623509653048018, 0.0 ], [ 39.29462120320602, -4.623829350344181, 0.0 ], [ 39.294675946737584, -4.623829334156426, 0.0 ], [ 39.296239594381802, -4.624745961856604, 0.0 ], [ 39.296457865238324, -4.625393569957225, 0.0 ], [ 39.296374232784672, -4.626006144967562, 0.0 ], [ 39.296346366391731, -4.626566374938193, 0.0 ], [ 39.295942033897802, -4.627114741052424, 0.0 ], [ 39.295002059797298, -4.627002550627139, 0.0 ], [ 39.293782382151278, -4.626433012673374, 0.0 ], [ 39.293030957212977, -4.62612403079936, 0.0 ], [ 39.292405305160742, -4.625593925419253, 0.0 ], [ 39.291884958324204, -4.624869886635906, 0.0 ], [ 39.29203511902557, -4.623424210259031, 0.0 ] ] ] } },
{ "type": "Feature", "properties": { "OBJECTID": 18, "Name": "Makimatu", "AltMode": 0, "Base": 0, "Clamped": -1, "PopupInfo": null, "Shape_Leng": 0.0017576055457699999, "Shape_Le_1": 0.00175760536922, "Shape_Area": 2.32283427923e-07 }, "geometry": { "type": "Polygon", "coordinates": [ [ [ 39.295401118666746, -4.576906904230214, 0.0 ], [ 39.29530789134617, -4.576778158185391, 0.0 ], [ 39.295309332959391, -4.576614354768594, 0.0 ], [ 39.295338346887263, -4.576527250931861, 0.0 ], [ 39.295395303650423, -4.5764660106978, 0.0 ], [ 39.295433153417321, -4.576389499076072, 0.0 ], [ 39.295481870591914, -4.576355091014591, 0.0 ], [ 39.29548873331845, -4.576351610638255, 0.0 ], [ 39.295564923882182, -4.576335859911978, 0.0 ], [ 39.295714977564216, -4.576431526193915, 0.0 ], [ 39.295787390076043, -4.576551431902999, 0.0 ], [ 39.295803620140987, -4.576672838580578, 0.0 ], [ 39.295803489739285, -4.576674262207405, 0.0 ], [ 39.295792401997801, -4.576742373261879, 0.0 ], [ 39.295761122677732, -4.576831861201413, 0.0 ], [ 39.295709786677378, -4.57689744516091, 0.0 ], [ 39.295619226745998, -4.576966352115392, 0.0 ], [ 39.295401118666746, -4.576906904230214, 0.0 ] ] ] } },
{ "type": "Feature", "properties": { "OBJECTID": 19, "Name": "Kifungu_Mwandege", "AltMode": 0, "Base": 0, "Clamped": -1, "PopupInfo": null, "Shape_Leng": 0.0031405947185099998, "Shape_Le_1": 0.0031405947968500001, "Shape_Area": 7.2735334752699995e-07 }, "geometry": { "type": "Polygon", "coordinates": [ [ [ 39.293346691196916, -4.583715648058671, 0.0 ], [ 39.293207715363849, -4.583634950092801, 0.0 ], [ 39.293150055330841, -4.583513508341696, 0.0 ], [ 39.293126081203752, -4.583460369200623, 0.0 ], [ 39.293121011725361, -4.583385851375908, 0.0 ], [ 39.293108169406537, -4.583341388893928, 0.0 ], [ 39.293107742228585, -4.583264316095267, 0.0 ], [ 39.293065178215443, -4.583106362768376, 0.0 ], [ 39.293097457581666, -4.582941896551233, 0.0 ], [ 39.293240840092722, -4.58287414612488, 0.0 ], [ 39.29336185916253, -4.582773626201856, 0.0 ], [ 39.293641015020853, -4.582796599383528, 0.0 ], [ 39.29400818482992, -4.583141451616655, 0.0 ], [ 39.293969564343968, -4.583553467918136, 0.0 ], [ 39.293822733832144, -4.583772734324157, 0.0 ], [ 39.293561314403178, -4.583757159865002, 0.0 ], [ 39.293346691196916, -4.583715648058671, 0.0 ] ] ] } },
{ "type": "Feature", "properties": { "OBJECTID": 20, "Name": "Kulijani", "AltMode": 0, "Base": 0, "Clamped": -1, "PopupInfo": null, "Shape_Leng": 0.0051986453380399996, "Shape_Le_1": 0.0051986453421000002, "Shape_Area": 2.02056776511e-06 }, "geometry": { "type": "Polygon", "coordinates": [ [ [ 39.295558889431277, -4.593872191948037, 0.0 ], [ 39.295156851107834, -4.593848314048387, 0.0 ], [ 39.294956759147169, -4.593610580963514, 0.0 ], [ 39.294823731430085, -4.593416537842927, 0.0 ], [ 39.294717426168347, -4.593163277962844, 0.0 ], [ 39.294696975584998, -4.592906835382109, 0.0 ], [ 39.294746291708066, -4.592664736987956, 0.0 ], [ 39.294928495253885, -4.592229450728496, 0.0 ], [ 39.295301691419979, -4.592029715798674, 0.0 ], [ 39.295716583753403, -4.592156527401755, 0.0 ], [ 39.295964438707927, -4.592576609722698, 0.0 ], [ 39.296173711847359, -4.592952243950833, 0.0 ], [ 39.296199093413463, -4.593256384774293, 0.0 ], [ 39.296012763778094, -4.593596794356529, 0.0 ], [ 39.295558889431277, -4.593872191948037, 0.0 ] ] ] } },
{ "type": "Feature", "properties": { "OBJECTID": 21, "Name": "Maraani", "AltMode": 0, "Base": 0, "Clamped": -1, "PopupInfo": null, "Shape_Leng": 0.0058984065889199997, "Shape_Le_1": 0.0058984060545199998, "Shape_Area": 2.53506793662e-06 }, "geometry": { "type": "Polygon", "coordinates": [ [ [ 39.293447309146075, -4.609849854986749, 0.0 ], [ 39.292999873945064, -4.609443564668709, 0.0 ], [ 39.29279053695376, -4.608921984861638, 0.0 ], [ 39.292968796972445, -4.608132451151675, 0.0 ], [ 39.293228671366137, -4.607821156221348, 0.0 ], [ 39.293434372398394, -4.607684343257802, 0.0 ], [ 39.293750026342707, -4.607621465358307, 0.0 ], [ 39.294090980014744, -4.607888096358522, 0.0 ], [ 39.294364753430671, -4.608319110838238, 0.0 ], [ 39.294313887775729, -4.608958584570985, 0.0 ], [ 39.294052483635255, -4.609628090264096, 0.0 ], [ 39.293447309146075, -4.609849854986749, 0.0 ] ] ] } },
{ "type": "Feature", "properties": { "OBJECTID": 22, "Name": "Tunga", "AltMode": 0, "Base": 0, "Clamped": -1, "PopupInfo": null, "Shape_Leng": 0.0037985122606499998, "Shape_Le_1": 0.0037985119767900001, "Shape_Area": 1.07656972286e-06 }, "geometry": { "type": "Polygon", "coordinates": [ [ [ 39.291244471954883, -4.614109808620697, 0.0 ], [ 39.290879079206206, -4.613888580793343, 0.0 ], [ 39.29078919286701, -4.613542774379482, 0.0 ], [ 39.290849158761716, -4.613125798316901, 0.0 ], [ 39.290928946613633, -4.612961046115345, 0.0 ], [ 39.291048543855254, -4.612843705272724, 0.0 ], [ 39.291198179352534, -4.612795322645979, 0.0 ], [ 39.291433769353034, -4.612755998890179, 0.0 ], [ 39.291639218575142, -4.612933345197689, 0.0 ], [ 39.291750862212552, -4.613193958834074, 0.0 ], [ 39.291807706560462, -4.6134458634358, 0.0 ], [ 39.291782647850994, -4.61382799796371, 0.0 ], [ 39.291570218990444, -4.614069658387962, 0.0 ], [ 39.291244471954883, -4.614109808620697, 0.0 ] ] ] } },
{ "type": "Feature", "properties": { "OBJECTID": 23, "Name": "Umbwiga", "AltMode": 0, "Base": 0, "Clamped": -1, "PopupInfo": null, "Shape_Leng": 0.0029336985358099999, "Shape_Le_1": 0.00293369932768, "Shape_Area": 6.4607030629499999e-07 }, "geometry": { "type": "Polygon", "coordinates": [ [ [ 39.290304151615373, -4.615549533284309, 0.0 ], [ 39.290120590093238, -4.615215328124862, 0.0 ], [ 39.290130159779096, -4.614975628222624, 0.0 ], [ 39.290239040699248, -4.614810575647482, 0.0 ], [ 39.290379878128931, -4.614710294044812, 0.0 ], [ 39.290593709032521, -4.61461475996316, 0.0 ], [ 39.290744274428789, -4.614671939758182, 0.0 ], [ 39.290830149791645, -4.614768119553048, 0.0 ], [ 39.290862296957471, -4.614857780162367, 0.0 ], [ 39.290929238893341, -4.61497301839006, 0.0 ], [ 39.290961368072715, -4.615156026829141, 0.0 ], [ 39.290941835697197, -4.615445506904564, 0.0 ], [ 39.290636046416466, -4.615648328307657, 0.0 ], [ 39.290304151615373, -4.615549533284309, 0.0 ] ] ] } },
{ "type": "Feature", "properties": { "OBJECTID": 24, "Name": "Usuni", "AltMode": 0, "Base": 0, "Clamped": -1, "PopupInfo": null, "Shape_Leng": 0.00319916810017, "Shape_Le_1": 0.00319916752615, "Shape_Area": 7.9000984779399999e-07 }, "geometry": { "type": "Polygon", "coordinates": [ [ [ 39.290955466721471, -4.616654310847707, 0.0 ], [ 39.290732808971995, -4.616574141683259, 0.0 ], [ 39.290574751323788, -4.616419578800446, 0.0 ], [ 39.290523012427116, -4.616144658748965, 0.0 ], [ 39.290549973202758, -4.615959137604079, 0.0 ], [ 39.290619595118301, -4.615785379591557, 0.0 ], [ 39.290782930887588, -4.615695450984219, 0.0 ], [ 39.290969515031122, -4.615605855126091, 0.0 ], [ 39.29121820905317, -4.615645663616419, 0.0 ], [ 39.291396353059326, -4.615775164192428, 0.0 ], [ 39.291500070971551, -4.616073403664586, 0.0 ], [ 39.291444127744342, -4.616414398705501, 0.0 ], [ 39.291189238292759, -4.616612254052257, 0.0 ], [ 39.290955466721471, -4.616654310847707, 0.0 ] ] ] } },
{ "type": "Feature", "properties": { "OBJECTID": 25, "Name": "Madenge", "AltMode": 0, "Base": 0, "Clamped": -1, "PopupInfo": null, "Shape_Leng": 0.0027681893904600002, "Shape_Le_1": 0.0027681896158100001, "Shape_Area": 5.8608917163999998e-07 }, "geometry": { "type": "Polygon", "coordinates": [ [ [ 39.291458601433362, -4.61757383076764, 0.0 ], [ 39.291231315772677, -4.61741267135767, 0.0 ], [ 39.291145383752507, -4.617249089174095, 0.0 ], [ 39.291095228562028, -4.617041011233653, 0.0 ], [ 39.291166125716188, -4.616861225065463, 0.0 ], [ 39.291272157584046, -4.616757801231472, 0.0 ], [ 39.291348749245458, -4.616712088691884, 0.0 ], [ 39.291443110611112, -4.616681990181633, 0.0 ], [ 39.291532061655346, -4.61667647194156, 0.0 ], [ 39.291687031031699, -4.616662099875953, 0.0 ], [ 39.291822783694556, -4.61672307660865, 0.0 ], [ 39.29187907675805, -4.616890776787898, 0.0 ], [ 39.291919143353823, -4.617046470118453, 0.0 ], [ 39.291932012652296, -4.617219194809934, 0.0 ], [ 39.291858005642496, -4.617396684109622, 0.0 ], [ 39.291690423274474, -4.617557063807396, 0.0 ], [ 39.291458601433362, -4.61757383076764, 0.0 ] ] ] } },
{ "type": "Feature", "properties": { "OBJECTID": 26, "Name": "Kijito_Manyani", "AltMode": 0, "Base": 0, "Clamped": -1, "PopupInfo": null, "Shape_Leng": 0.0029346391774100001, "Shape_Le_1": 0.0029346388600899999, "Shape_Area": 6.5063215667499996e-07 }, "geometry": { "type": "Polygon", "coordinates": [ [ [ 39.288145328144424, -4.619748413058744, 0.0 ], [ 39.28787984108186, -4.619622616790309, 0.0 ], [ 39.287672729912629, -4.619335796909468, 0.0 ], [ 39.28763394934731, -4.619107923092145, 0.0 ], [ 39.287704866286617, -4.618885208685413, 0.0 ], [ 39.287858431821235, -4.618769823868206, 0.0 ], [ 39.287918329367471, -4.618773510189271, 0.0 ], [ 39.28801527538468, -4.618788197916956, 0.0 ], [ 39.288126625843176, -4.618795513002453, 0.0 ], [ 39.288256721770324, -4.618873510304184, 0.0 ], [ 39.288402456907932, -4.61894371228243, 0.0 ], [ 39.288406494863921, -4.618949993147623, 0.0 ], [ 39.288500065725486, -4.619098851630667, 0.0 ], [ 39.288525165803833, -4.619293313835328, 0.0 ], [ 39.288507484233037, -4.619497468932991, 0.0 ], [ 39.288383867021878, -4.61966875291057, 0.0 ], [ 39.288145328144424, -4.619748413058744, 0.0 ] ] ] } },
{ "type": "Feature", "properties": { "OBJECTID": 27, "Name": "Jafuu", "AltMode": 0, "Base": 0, "Clamped": -1, "PopupInfo": null, "Shape_Leng": 0.0054298779658600001, "Shape_Le_1": 0.0054298780426300002, "Shape_Area": 2.2472527660800002e-06 }, "geometry": { "type": "Polygon", "coordinates": [ [ [ 39.28021459912452, -4.615098972039902, 0.0 ], [ 39.279863959753982, -4.615142686285878, 0.0 ], [ 39.279599542884625, -4.61489508763816, 0.0 ], [ 39.279397715232449, -4.614387720716707, 0.0 ], [ 39.279410391176668, -4.613894086442883, 0.0 ], [ 39.279619724570694, -4.613677127697258, 0.0 ], [ 39.279767752979467, -4.613525618012829, 0.0 ], [ 39.279946366431716, -4.613407330184089, 0.0 ], [ 39.28024425696691, -4.613485167406509, 0.0 ], [ 39.280560967614633, -4.613555625691504, 0.0 ], [ 39.280854936206367, -4.613773145614118, 0.0 ], [ 39.281003688569399, -4.613986746291289, 0.0 ], [ 39.281078350285668, -4.614325769118921, 0.0 ], [ 39.281084113141333, -4.614552112290085, 0.0 ], [ 39.280865869264517, -4.614924435214448, 0.0 ], [ 39.280533856652198, -4.615071128130012, 0.0 ], [ 39.28021459912452, -4.615098972039902, 0.0 ] ] ] } },
{ "type": "Feature", "properties": { "OBJECTID": 28, "Name": "Bumbu_ya_Nyota", "AltMode": 0, "Base": 0, "Clamped": -1, "PopupInfo": null, "Shape_Leng": 0.0064112234792200002, "Shape_Le_1": 0.0064112236462799998, "Shape_Area": 2.99882934297e-06 }, "geometry": { "type": "Polygon", "coordinates": [ [ [ 39.279990424218738, -4.612916562948953, 0.0 ], [ 39.279460770298385, -4.612699660860585, 0.0 ], [ 39.279027426574544, -4.61229786985075, 0.0 ], [ 39.278904759047464, -4.611693353665316, 0.0 ], [ 39.278897794697514, -4.61129826620197, 0.0 ], [ 39.278992166855062, -4.611012842968307, 0.0 ], [ 39.279194202250665, -4.610812962348291, 0.0 ], [ 39.279475789875846, -4.610783960111632, 0.0 ], [ 39.279713889884135, -4.610637242914379, 0.0 ], [ 39.279938609779094, -4.610666812623265, 0.0 ], [ 39.280242435839796, -4.610725606701351, 0.0 ], [ 39.280440187764498, -4.611143116061896, 0.0 ], [ 39.280628504901642, -4.612026719757239, 0.0 ], [ 39.280512433901777, -4.612580914377645, 0.0 ], [ 39.279990424218738, -4.612916562948953, 0.0 ] ] ] } },
{ "type": "Feature", "properties": { "OBJECTID": 29, "Name": "Bumbu_ya_Tope", "AltMode": 0, "Base": 0, "Clamped": -1, "PopupInfo": null, "Shape_Leng": 0.0059703595958799996, "Shape_Le_1": 0.0059703588459100003, "Shape_Area": 2.7128350722800001e-06 }, "geometry": { "type": "Polygon", "coordinates": [ [ [ 39.278343135127614, -4.609333603662833, 0.0 ], [ 39.278533848058714, -4.608906109129578, 0.0 ], [ 39.278968360001841, -4.608718370256554, 0.0 ], [ 39.279294591772043, -4.608706720438761, 0.0 ], [ 39.279540791974, -4.60880474834039, 0.0 ], [ 39.279733409669177, -4.609021331169458, 0.0 ], [ 39.279871896271061, -4.609422707591818, 0.0 ], [ 39.279919796861179, -4.609728361974305, 0.0 ], [ 39.279913905402452, -4.610097775591839, 0.0 ], [ 39.279864326677398, -4.61039519668094, 0.0 ], [ 39.279725224939227, -4.610516749947976, 0.0 ], [ 39.279561256047202, -4.610623557930808, 0.0 ], [ 39.279302022870127, -4.610709999866572, 0.0 ], [ 39.279046283559182, -4.610713410995061, 0.0 ], [ 39.278725251669073, -4.610686023940787, 0.0 ], [ 39.278432430612213, -4.610391442910725, 0.0 ], [ 39.278248432019552, -4.609813230096449, 0.0 ], [ 39.278343135127614, -4.609333603662833, 0.0 ] ] ] } },
{ "type": "Feature", "properties": { "OBJECTID": 30, "Name": "Rimbani", "AltMode": 0, "Base": 0, "Clamped": -1, "PopupInfo": null, "Shape_Leng": 0.0050563059011399999, "Shape_Le_1": 0.0050563056098000001, "Shape_Area": 1.90509456457e-06 }, "geometry": { "type": "Polygon", "coordinates": [ [ [ 39.279275447004352, -4.607543870053519, 0.0 ], [ 39.278828185372504, -4.607350220835997, 0.0 ], [ 39.278626134688409, -4.606824993378666, 0.0 ], [ 39.278598145088381, -4.606285099777494, 0.0 ], [ 39.278808600836328, -4.605888985288402, 0.0 ], [ 39.279138021602478, -4.605709080409667, 0.0 ], [ 39.279349489986998, -4.605767727898296, 0.0 ], [ 39.279454259206773, -4.605799971291617, 0.0 ], [ 39.27962780677791, -4.605920339252179, 0.0 ], [ 39.279770750419857, -4.606133517247997, 0.0 ], [ 39.279894211148985, -4.606353219825166, 0.0 ], [ 39.279927028309771, -4.606625208086825, 0.0 ], [ 39.279926138880285, -4.606928403722804, 0.0 ], [ 39.279884985004117, -4.607235886426963, 0.0 ], [ 39.279642739121186, -4.607456793196377, 0.0 ], [ 39.279275447004352, -4.607543870053519, 0.0 ] ] ] } },
{ "type": "Feature", "properties": { "OBJECTID": 31, "Name": "Kibuzi", "AltMode": 0, "Base": 0, "Clamped": -1, "PopupInfo": null, "Shape_Leng": 0.0088465679655899999, "Shape_Le_1": 0.0088465685229899994, "Shape_Area": 5.7738860808899998e-06 }, "geometry": { "type": "Polygon", "coordinates": [ [ [ 39.276739226634049, -4.599117065100415, 0.0 ], [ 39.27602338067453, -4.599022984323199, 0.0 ], [ 39.275458814172964, -4.598381515894175, 0.0 ], [ 39.275190494245976, -4.597308489794898, 0.0 ], [ 39.275373422645373, -4.596340621422485, 0.0 ], [ 39.275891142562216, -4.595908234577337, 0.0 ], [ 39.276481123904773, -4.596063263308906, 0.0 ], [ 39.276889813614048, -4.596306573089805, 0.0 ], [ 39.277246159182937, -4.596725828034494, 0.0 ], [ 39.277551496104707, -4.597140168184183, 0.0 ], [ 39.277666145276442, -4.598009919622029, 0.0 ], [ 39.277289514599488, -4.598699809348659, 0.0 ], [ 39.276739226634049, -4.599117065100415, 0.0 ] ] ] } },
{ "type": "Feature", "properties": { "OBJECTID": 32, "Name": "Cheteni", "AltMode": 0, "Base": 0, "Clamped": -1, "PopupInfo": null, "Shape_Leng": 0.0047021003533400003, "Shape_Le_1": 0.0047021012234400002, "Shape_Area": 1.63098350275e-06 }, "geometry": { "type": "Polygon", "coordinates": [ [ [ 39.270727783960126, -4.588455589653677, 0.0 ], [ 39.270313308912137, -4.588466772723336, 0.0 ], [ 39.269998549793286, -4.588158096618827, 0.0 ], [ 39.269800424649929, -4.587625068442094, 0.0 ], [ 39.269956734915411, -4.587152823643862, 0.0 ], [ 39.270146992789535, -4.586880191467628, 0.0 ], [ 39.270395782139701, -4.586802892039771, 0.0 ], [ 39.270544958083406, -4.586796882769875, 0.0 ], [ 39.270710034040917, -4.586941067476232, 0.0 ], [ 39.27085619275914, -4.587043380647458, 0.0 ], [ 39.270992914891167, -4.58723069144321, 0.0 ], [ 39.271084318386613, -4.587719932528842, 0.0 ], [ 39.271068894114251, -4.588211001936145, 0.0 ], [ 39.270727783960126, -4.588455589653677, 0.0 ] ] ] } },
{ "type": "Feature", "properties": { "OBJECTID": 33, "Name": "Ndimuni", "AltMode": 0, "Base": 0, "Clamped": -1, "PopupInfo": null, "Shape_Leng": 0.0029578005208699999, "Shape_Le_1": 0.0029578002837200002, "Shape_Area": 6.3205524465299995e-07 }, "geometry": { "type": "Polygon", "coordinates": [ [ [ 39.270193878045063, -4.586730386897784, 0.0 ], [ 39.270013349936221, -4.586630617009348, 0.0 ], [ 39.269854469408301, -4.586410836191078, 0.0 ], [ 39.2698314701463, -4.586129187412041, 0.0 ], [ 39.269855918216081, -4.585871224077664, 0.0 ], [ 39.270054490322536, -4.585758593883952, 0.0 ], [ 39.270245144797627, -4.585684302688378, 0.0 ], [ 39.270387538953798, -4.585780838614767, 0.0 ], [ 39.270489963640955, -4.585904785877119, 0.0 ], [ 39.270569993410504, -4.586173632806833, 0.0 ], [ 39.270589026662321, -4.586326292724209, 0.0 ], [ 39.270604369096418, -4.586538732376539, 0.0 ], [ 39.270505610045916, -4.586728163773671, 0.0 ], [ 39.270344813062707, -4.586734827750035, 0.0 ], [ 39.270193878045063, -4.586730386897784, 0.0 ] ] ] } },
{ "type": "Feature", "properties": { "OBJECTID": 34, "Name": "Mapangani", "AltMode": 0, "Base": 0, "Clamped": -1, "PopupInfo": null, "Shape_Leng": 0.0037507433315700001, "Shape_Le_1": 0.0037507435109300001, "Shape_Area": 1.0696047332800001e-06 }, "geometry": { "type": "Polygon", "coordinates": [ [ [ 39.267264852690857, -4.588460590783598, 0.0 ], [ 39.267050168330684, -4.58843397984424, 0.0 ], [ 39.26679373294445, -4.588180921412345, 0.0 ], [ 39.266644056977725, -4.58781550168402, 0.0 ], [ 39.266749525869955, -4.587399352098373, 0.0 ], [ 39.26696185670437, -4.58729331213658, 0.0 ], [ 39.267147011825216, -4.587297807847506, 0.0 ], [ 39.26724665311059, -4.587324631026831, 0.0 ], [ 39.267345627998395, -4.587342381845417, 0.0 ], [ 39.26743256725922, -4.587355627959823, 0.0 ], [ 39.267518213294977, -4.587386308331418, 0.0 ], [ 39.267595539702427, -4.587442465597235, 0.0 ], [ 39.267678465289009, -4.587480734448263, 0.0 ], [ 39.267764400906401, -4.58753514882801, 0.0 ], [ 39.267835627212492, -4.58773155176965, 0.0 ], [ 39.267819613884114, -4.587922459853587, 0.0 ], [ 39.267768594445158, -4.588104299174006, 0.0 ], [ 39.267671827392974, -4.588271273600355, 0.0 ], [ 39.267596707921768, -4.588379896415063, 0.0 ], [ 39.267435214863326, -4.588425049576358, 0.0 ], [ 39.267264852690857, -4.588460590783598, 0.0 ] ] ] } },
{ "type": "Feature", "properties": { "OBJECTID": 35, "Name": "Fungu_Dume", "AltMode": 0, "Base": 0, "Clamped": -1, "PopupInfo": null, "Shape_Leng": 0.0068951910752099999, "Shape_Le_1": 0.0068951915420499997, "Shape_Area": 3.4111006123e-06 }, "geometry": { "type": "Polygon", "coordinates": [ [ [ 39.296740443017086, -4.607502432890897, 0.0 ], [ 39.296301248304019, -4.607278625807908, 0.0 ], [ 39.295930430844749, -4.606810540374113, 0.0 ], [ 39.29579528792226, -4.606415355784009, 0.0 ], [ 39.295831992852243, -4.605619474658965, 0.0 ], [ 39.296229259372865, -4.605263371007709, 0.0 ], [ 39.29665961644821, -4.605091329800985, 0.0 ], [ 39.296980381239678, -4.605060850877521, 0.0 ], [ 39.297320514730018, -4.605422983583765, 0.0 ], [ 39.297397348309005, -4.605868320666445, 0.0 ], [ 39.297459441999706, -4.606174112645135, 0.0 ], [ 39.297619095045263, -4.606717546877235, 0.0 ], [ 39.297523237207656, -4.607219603301985, 0.0 ], [ 39.29718228083766, -4.607566925073513, 0.0 ], [ 39.296740443017086, -4.607502432890897, 0.0 ] ] ] } },
{ "type": "Feature", "properties": { "OBJECTID": 36, "Name": "Mchumi", "AltMode": 0, "Base": 0, "Clamped": -1, "PopupInfo": null, "Shape_Leng": 0.0061678929020699998, "Shape_Le_1": 0.0061678930849800003, "Shape_Area": 2.8209678686899999e-06 }, "geometry": { "type": "Polygon", "coordinates": [ [ [ 39.29879390821236, -4.610114143253043, 0.0 ], [ 39.298344879412696, -4.610000629925082, 0.0 ], [ 39.297790209950278, -4.609365534092092, 0.0 ], [ 39.297716462844562, -4.608803891286527, 0.0 ], [ 39.297901868876181, -4.608339126149701, 0.0 ], [ 39.298142049016406, -4.608055988093327, 0.0 ], [ 39.29849037622995, -4.607847257245055, 0.0 ], [ 39.298826626447692, -4.608074614851546, 0.0 ], [ 39.299120348625252, -4.608212767804957, 0.0 ], [ 39.299423884204941, -4.608753887182104, 0.0 ], [ 39.299504937403015, -4.609388079196435, 0.0 ], [ 39.299176551756489, -4.609829298283444, 0.0 ], [ 39.29879390821236, -4.610114143253043, 0.0 ] ] ] } },
{ "type": "Feature", "properties": { "OBJECTID": 37, "Name": "Kiwe", "AltMode": 0, "Base": 0, "Clamped": -1, "PopupInfo": null, "Shape_Leng": 0.0063324210117599996, "Shape_Le_1": 0.0063324205360399998, "Shape_Area": 2.9194410117700001e-06 }, "geometry": { "type": "Polygon", "coordinates": [ [ [ 39.304971234434959, -4.613863998724526, 0.0 ], [ 39.304665440657629, -4.613580643931527, 0.0 ], [ 39.304484529437559, -4.613060244035012, 0.0 ], [ 39.304422612913299, -4.612525635749421, 0.0 ], [ 39.304605603365928, -4.612199272678254, 0.0 ], [ 39.304803472202536, -4.611854154245748, 0.0 ], [ 39.305051352338069, -4.611663425126949, 0.0 ], [ 39.305243401661698, -4.611740666998116, 0.0 ], [ 39.305421733626133, -4.611839185030306, 0.0 ], [ 39.305598618581428, -4.611972173177207, 0.0 ], [ 39.305831244416424, -4.612192349697125, 0.0 ], [ 39.306056973350678, -4.612582957637358, 0.0 ], [ 39.306176193776366, -4.613214710690272, 0.0 ], [ 39.30594075216402, -4.613696651978842, 0.0 ], [ 39.305467426380687, -4.614088306729911, 0.0 ], [ 39.304971234434959, -4.613863998724526, 0.0 ] ] ] } },
{ "type": "Feature", "properties": { "OBJECTID": 38, "Name": "Mkimwi", "AltMode": 0, "Base": 0, "Clamped": -1, "PopupInfo": null, "Shape_Leng": 0.0083842857004199998, "Shape_Le_1": 0.0083842857322899995, "Shape_Area": 4.9454401193100001e-06 }, "geometry": { "type": "Polygon", "coordinates": [ [ [ 39.304689105417935, -4.61064702843754, 0.0 ], [ 39.304745596332282, -4.609808549125205, 0.0 ], [ 39.30500144805842, -4.609166737155135, 0.0 ], [ 39.305454628128643, -4.608552815859696, 0.0 ], [ 39.306212745821597, -4.608670245735198, 0.0 ], [ 39.3066232638526, -4.609348357940291, 0.0 ], [ 39.306765485338929, -4.610062153445597, 0.0 ], [ 39.306660820440584, -4.610535299364528, 0.0 ], [ 39.306592917129478, -4.610870321108393, 0.0 ], [ 39.306535663590068, -4.611022817349067, 0.0 ], [ 39.306473873870232, -4.611190427596114, 0.0 ], [ 39.306385055925659, -4.611345926673152, 0.0 ], [ 39.306272009345832, -4.611453010747823, 0.0 ], [ 39.306148644844143, -4.611659941153334, 0.0 ], [ 39.305924020277359, -4.611823479270129, 0.0 ], [ 39.305716951376269, -4.611719039202228, 0.0 ], [ 39.305461632948038, -4.611606075360044, 0.0 ], [ 39.30522968340324, -4.611502549003376, 0.0 ], [ 39.30500038775773, -4.611216696793065, 0.0 ], [ 39.304689105417935, -4.61064702843754, 0.0 ] ] ] } },
{ "type": "Feature", "properties": { "OBJECTID": 39, "Name": "Jasimba", "AltMode": 0, "Base": 0, "Clamped": -1, "PopupInfo": null, "Shape_Leng": 0.0098476117135699991, "Shape_Le_1": 0.0098476118483200002, "Shape_Area": 6.8306328794400004e-06 }, "geometry": { "type": "Polygon", "coordinates": [ [ [ 39.30654506240478, -4.60736345525919, 0.0 ], [ 39.305715408139633, -4.606885092373091, 0.0 ], [ 39.305576891860142, -4.605795563714253, 0.0 ], [ 39.305736599764316, -4.605159400385958, 0.0 ], [ 39.306009605159204, -4.604694021911541, 0.0 ], [ 39.306230761940185, -4.604303333931682, 0.0 ], [ 39.306414490736188, -4.604042990991218, 0.0 ], [ 39.306707157109656, -4.603805239020517, 0.0 ], [ 39.307099292998032, -4.603775089248927, 0.0 ], [ 39.307494590902706, -4.603684048180241, 0.0 ], [ 39.307799434995957, -4.60382027298715, 0.0 ], [ 39.307974607642109, -4.604346010360018, 0.0 ], [ 39.308081009131342, -4.604556430135119, 0.0 ], [ 39.308109147119524, -4.604869765627143, 0.0 ], [ 39.308069443849831, -4.605313413782994, 0.0 ], [ 39.308035760641872, -4.605674541047165, 0.0 ], [ 39.307787894895512, -4.606308062167273, 0.0 ], [ 39.307408346817795, -4.606999748739383, 0.0 ], [ 39.30654506240478, -4.60736345525919, 0.0 ] ] ] } },
{ "type": "Feature", "properties": { "OBJECTID": 40, "Name": "Vunguvunguni", "AltMode": 0, "Base": 0, "Clamped": -1, "PopupInfo": null, "Shape_Leng": 0.0051443049716300001, "Shape_Le_1": 0.0051443052523799998, "Shape_Area": 1.9167748044800001e-06 }, "geometry": { "type": "Polygon", "coordinates": [ [ [ 39.305560850652796, -4.601035472808803, 0.0 ], [ 39.3053150578437, -4.60100326179105, 0.0 ], [ 39.305076973123846, -4.60079964358863, 0.0 ], [ 39.304891701091208, -4.600598017384527, 0.0 ], [ 39.304681354161232, -4.600235449406398, 0.0 ], [ 39.304750871755402, -4.599875303302554, 0.0 ], [ 39.304891916029135, -4.599557690634867, 0.0 ], [ 39.30506882166884, -4.599338536644098, 0.0 ], [ 39.305289589942674, -4.599221721904883, 0.0 ], [ 39.30554866393976, -4.599344601671987, 0.0 ], [ 39.305729523898435, -4.599574995389673, 0.0 ], [ 39.305988425225678, -4.599886028617277, 0.0 ], [ 39.306187102552769, -4.600375882141179, 0.0 ], [ 39.306239330680626, -4.600713267303377, 0.0 ], [ 39.305998032683135, -4.600946203404533, 0.0 ], [ 39.305757609725958, -4.601039479288488, 0.0 ], [ 39.305560850652796, -4.601035472808803, 0.0 ] ] ] } },
{ "type": "Feature", "properties": { "OBJECTID": 41, "Name": "Kigomacha", "AltMode": 0, "Base": 0, "Clamped": -1, "PopupInfo": null, "Shape_Leng": 0.0067361235994799996, "Shape_Le_1": 0.0067361231236000001, "Shape_Area": 3.45261645222e-06 }, "geometry": { "type": "Polygon", "coordinates": [ [ [ 39.303976593245238, -4.595689961022856, 0.0 ], [ 39.303583548142285, -4.595394233357126, 0.0 ], [ 39.303485424912481, -4.59521572602489, 0.0 ], [ 39.303389733449478, -4.594954514339292, 0.0 ], [ 39.303362993007795, -4.59460869983161, 0.0 ], [ 39.30333881293592, -4.594213008023871, 0.0 ], [ 39.303390639066777, -4.594015428768955, 0.0 ], [ 39.303507870192107, -4.593801194069783, 0.0 ], [ 39.303682291904295, -4.593611775263184, 0.0 ], [ 39.303919990814961, -4.593394738276515, 0.0 ], [ 39.304214590730851, -4.593328229813892, 0.0 ], [ 39.304505033080886, -4.593416766270707, 0.0 ], [ 39.304804855359862, -4.593579673962722, 0.0 ], [ 39.305017271629822, -4.593954952059335, 0.0 ], [ 39.305188319985007, -4.594479601252544, 0.0 ], [ 39.305199869078763, -4.594885190998696, 0.0 ], [ 39.305040360824023, -4.595370219659856, 0.0 ], [ 39.304584498975487, -4.595651929592805, 0.0 ], [ 39.303976593245238, -4.595689961022856, 0.0 ] ] ] } },
{ "type": "Feature", "properties": { "OBJECTID": 42, "Name": "Kijambani", "AltMode": 0, "Base": 0, "Clamped": -1, "PopupInfo": null, "Shape_Leng": 0.0055966442971000004, "Shape_Le_1": 0.0055966435119599997, "Shape_Area": 2.3155323486199999e-06 }, "geometry": { "type": "Polygon", "coordinates": [ [ [ 39.311143840116188, -4.586436279810414, 0.0 ], [ 39.310930956198717, -4.586112988823345, 0.0 ], [ 39.310744133734829, -4.585846927993259, 0.0 ], [ 39.310703410633948, -4.585450185777404, 0.0 ], [ 39.31076557267312, -4.585267857225801, 0.0 ], [ 39.310877978036331, -4.585029194241883, 0.0 ], [ 39.311026197101341, -4.584829799255772, 0.0 ], [ 39.31125319857631, -4.584612648954533, 0.0 ], [ 39.311694137974143, -4.584413643374887, 0.0 ], [ 39.312111659925222, -4.584843430280046, 0.0 ], [ 39.312272698826064, -4.585423415658056, 0.0 ], [ 39.312130750733616, -4.586049816845502, 0.0 ], [ 39.311857263302102, -4.586324675743128, 0.0 ], [ 39.311546272342639, -4.586478648670663, 0.0 ], [ 39.311143840116188, -4.586436279810414, 0.0 ] ] ] } },
{ "type": "Feature", "properties": { "OBJECTID": 43, "Name": "Dimbwini", "AltMode": 0, "Base": 0, "Clamped": -1, "PopupInfo": null, "Shape_Leng": 0.0028627987409100002, "Shape_Le_1": 0.00286279851325, "Shape_Area": 6.0961364901900003e-07 }, "geometry": { "type": "Polygon", "coordinates": [ [ [ 39.310306169294336, -4.587133515199525, 0.0 ], [ 39.310139372933747, -4.586985897780892, 0.0 ], [ 39.310065081738173, -4.586720749762719, 0.0 ], [ 39.310057762156077, -4.586473185289208, 0.0 ], [ 39.310133268335733, -4.586295254422396, 0.0 ], [ 39.310232854762489, -4.586178988269637, 0.0 ], [ 39.310342488415188, -4.586150591276692, 0.0 ], [ 39.310441751085989, -4.58614423486847, 0.0 ], [ 39.310554998214627, -4.586160095312096, 0.0 ], [ 39.31071524841002, -4.586213243446366, 0.0 ], [ 39.310799043640998, -4.586434216765667, 0.0 ], [ 39.310792921955851, -4.586750077553972, 0.0 ], [ 39.310687379319177, -4.587024402254315, 0.0 ], [ 39.310525093058629, -4.587155401100858, 0.0 ], [ 39.310306169294336, -4.587133515199525, 0.0 ] ] ] } },
{ "type": "Feature", "properties": { "OBJECTID": 44, "Name": "Lekeoni", "AltMode": 0, "Base": 0, "Clamped": -1, "PopupInfo": null, "Shape_Leng": 0.00471646458123, "Shape_Le_1": 0.0047164647455699999, "Shape_Area": 1.6408222484899999e-06 }, "geometry": { "type": "Polygon", "coordinates": [ [ [ 39.296613897613327, -4.596847448750736, 0.0 ], [ 39.296892166740179, -4.596470970059158, 0.0 ], [ 39.297374779822292, -4.596505841271494, 0.0 ], [ 39.297630725977285, -4.596637510112942, 0.0 ], [ 39.297744572054398, -4.596959235380382, 0.0 ], [ 39.297786413012602, -4.597185594739358, 0.0 ], [ 39.297808173008832, -4.597382931177265, 0.0 ], [ 39.297831474443058, -4.597580852174531, 0.0 ], [ 39.297796233609347, -4.597739583414977, 0.0 ], [ 39.297769968908995, -4.59782501721071, 0.0 ], [ 39.297711727913963, -4.597904416555536, 0.0 ], [ 39.297606095345088, -4.598003546126733, 0.0 ], [ 39.297388894681774, -4.598140897784162, 0.0 ], [ 39.297052796449464, -4.598100143206977, 0.0 ], [ 39.296733678316627, -4.597823398431046, 0.0 ], [ 39.296612298618754, -4.59742575779245, 0.0 ], [ 39.296613897613327, -4.596847448750736, 0.0 ] ] ] } },
{ "type": "Feature", "properties": { "OBJECTID": 45, "Name": "Kombeni", "AltMode": 0, "Base": 0, "Clamped": -1, "PopupInfo": null, "Shape_Leng": 0.0039884448199000002, "Shape_Le_1": 0.0039884448734499997, "Shape_Area": 1.14062975868e-06 }, "geometry": { "type": "Polygon", "coordinates": [ [ [ 39.296516099938117, -4.59530183790946, 0.0 ], [ 39.296855124564388, -4.594911212882096, 0.0 ], [ 39.297211361315306, -4.594911212882096, 0.0 ], [ 39.297470966811716, -4.595287711358765, 0.0 ], [ 39.297571213340859, -4.595595380222562, 0.0 ], [ 39.297554571386399, -4.59575929515529, 0.0 ], [ 39.297553199920287, -4.595892601662172, 0.0 ], [ 39.29754795957075, -4.595986920759742, 0.0 ], [ 39.297523479125289, -4.596064774169918, 0.0 ], [ 39.297442960124556, -4.596264591837382, 0.0 ], [ 39.297155829977612, -4.596345710685966, 0.0 ], [ 39.296848169207692, -4.5962538638247, 0.0 ], [ 39.29662065511917, -4.595878856424065, 0.0 ], [ 39.296516099938117, -4.59530183790946, 0.0 ] ] ] } }
]
}
