<?xml version="1.0" encoding="UTF-8"?>
<kml xmlns="http://www.opengis.net/kml/2.2" xmlns:gx="http://www.google.com/kml/ext/2.2" xmlns:kml="http://www.opengis.net/kml/2.2" xmlns:atom="http://www.w3.org/2005/Atom">
<Document>
	<name>MajoreniPoints1.kml</name>
	<StyleMap id="m_ylw-pushpin">
		<Pair>
			<key>normal</key>
			<styleUrl>#s_ylw-pushpin</styleUrl>
		</Pair>
		<Pair>
			<key>highlight</key>
			<styleUrl>#s_ylw-pushpin_hl</styleUrl>
		</Pair>
	</StyleMap>
	<Style id="s_ylw-pushpin">
		<IconStyle>
			<color>ff0000ff</color>
			<scale>1.2</scale>
			<Icon>
				<href>http://maps.google.com/mapfiles/kml/shapes/placemark_circle.png</href>
			</Icon>
		</IconStyle>
		<ListStyle>
		</ListStyle>
	</Style>
	<Style id="s_ylw-pushpin_hl">
		<IconStyle>
			<color>ff0000ff</color>
			<scale>1.2</scale>
			<Icon>
				<href>http://maps.google.com/mapfiles/kml/shapes/placemark_circle_highlight.png</href>
			</Icon>
		</IconStyle>
		<ListStyle>
		</ListStyle>
	</Style>
	<Folder>
		<name>MajoreniPoints</name>
		<open>1</open>
		<Placemark>
			<name>Kisite-Mpunguti Marine National Park</name>
			<LookAt>
				<longitude>39.35529225943566</longitude>
				<latitude>-4.679855494290964</latitude>
				<altitude>0</altitude>
				<heading>-0.001774904454910148</heading>
				<tilt>1.498227647223485</tilt>
				<range>21311.0022401888</range>
				<gx:altitudeMode>relativeToSeaFloor</gx:altitudeMode>
			</LookAt>
			<styleUrl>#m_ylw-pushpin</styleUrl>
			<Point>
				<gx:drawOrder>1</gx:drawOrder>
				<coordinates>39.36074584343505,-4.712335678715792,0</coordinates>
			</Point>
		</Placemark>
		<Placemark>
			<name>Wasini Island</name>
			<LookAt>
				<longitude>39.367482437026</longitude>
				<latitude>-4.656243163517467</latitude>
				<altitude>0</altitude>
				<heading>-0.003924035883742633</heading>
				<tilt>3.940860104192365</tilt>
				<range>12976.32567134563</range>
				<gx:altitudeMode>relativeToSeaFloor</gx:altitudeMode>
			</LookAt>
			<styleUrl>#m_ylw-pushpin</styleUrl>
			<Point>
				<gx:drawOrder>1</gx:drawOrder>
				<coordinates>39.36556799401566,-4.658655104594947,0</coordinates>
			</Point>
		</Placemark>
		<Placemark>
			<name>Mkwiro</name>
			<LookAt>
				<longitude>39.36748320784815</longitude>
				<latitude>-4.666847814150615</latitude>
				<altitude>0</altitude>
				<heading>-0.003924098503793463</heading>
				<tilt>3.940860104192273</tilt>
				<range>12976.32567134001</range>
				<gx:altitudeMode>relativeToSeaFloor</gx:altitudeMode>
			</LookAt>
			<styleUrl>#m_ylw-pushpin</styleUrl>
			<Point>
				<gx:drawOrder>1</gx:drawOrder>
				<coordinates>39.39767323910561,-4.666261333881341,0</coordinates>
			</Point>
		</Placemark>
		<Placemark>
			<name>Majoreni BMU</name>
			<LookAt>
				<longitude>39.28987522437825</longitude>
				<latitude>-4.572165209234767</latitude>
				<altitude>0</altitude>
				<heading>0.007206471082131341</heading>
				<tilt>27.3176047262521</tilt>
				<range>48.26960573880974</range>
				<gx:altitudeMode>relativeToSeaFloor</gx:altitudeMode>
			</LookAt>
			<styleUrl>#m_ylw-pushpin</styleUrl>
			<Point>
				<gx:drawOrder>1</gx:drawOrder>
				<coordinates>39.28984536133495,-4.572131331940662,0</coordinates>
			</Point>
		</Placemark>
		<Placemark>
			<name>Vanga</name>
			<LookAt>
				<longitude>39.22268403791403</longitude>
				<latitude>-4.663949206689226</latitude>
				<altitude>0</altitude>
				<heading>0.005218480835003239</heading>
				<tilt>6.398945036996188</tilt>
				<range>3110.310571751117</range>
				<gx:altitudeMode>relativeToSeaFloor</gx:altitudeMode>
			</LookAt>
			<styleUrl>#m_ylw-pushpin</styleUrl>
			<Point>
				<gx:drawOrder>1</gx:drawOrder>
				<coordinates>39.21793480309973,-4.659936482723396,0</coordinates>
			</Point>
		</Placemark>
		<Placemark>
			<name>Funzi Island</name>
			<LookAt>
				<longitude>39.41812348612147</longitude>
				<latitude>-4.584190678356362</latitude>
				<altitude>0</altitude>
				<heading>-0.023086582200882</heading>
				<tilt>2.592744006287974</tilt>
				<range>10695.93064526452</range>
				<gx:altitudeMode>relativeToSeaFloor</gx:altitudeMode>
			</LookAt>
			<styleUrl>#m_ylw-pushpin</styleUrl>
			<Point>
				<gx:drawOrder>1</gx:drawOrder>
				<coordinates>39.43142155906187,-4.566420288971924,0</coordinates>
			</Point>
		</Placemark>
		<Placemark>
			<name>Shimoni</name>
			<LookAt>
				<longitude>39.38895370812731</longitude>
				<latitude>-4.633591040545632</latitude>
				<altitude>0</altitude>
				<heading>-0.02073840465882497</heading>
				<tilt>2.596716978477025</tilt>
				<range>20489.2726326778</range>
				<gx:altitudeMode>relativeToSeaFloor</gx:altitudeMode>
			</LookAt>
			<styleUrl>#m_ylw-pushpin</styleUrl>
			<Point>
				<gx:drawOrder>1</gx:drawOrder>
				<coordinates>39.3776732509563,-4.646944337602344,0</coordinates>
			</Point>
		</Placemark>
		<Placemark>
			<name>Marongo</name>
			<LookAt>
				<longitude>39.29636631344951</longitude>
				<latitude>-4.606514578638854</latitude>
				<altitude>0</altitude>
				<heading>-0.01323629829008013</heading>
				<tilt>2.606690605354982</tilt>
				<range>45073.89188382505</range>
				<gx:altitudeMode>relativeToSeaFloor</gx:altitudeMode>
			</LookAt>
			<styleUrl>#m_ylw-pushpin</styleUrl>
			<Point>
				<gx:drawOrder>1</gx:drawOrder>
				<coordinates>39.19629489488596,-4.618344537760594,0</coordinates>
			</Point>
		</Placemark>
		<Placemark>
			<name>Nami</name>
			<LookAt>
				<longitude>39.22500073563309</longitude>
				<latitude>-4.741798940031617</latitude>
				<altitude>0</altitude>
				<heading>-0.006932669782921685</heading>
				<tilt>2.123047515151181</tilt>
				<range>24178.07634554015</range>
				<gx:altitudeMode>relativeToSeaFloor</gx:altitudeMode>
			</LookAt>
			<styleUrl>#m_ylw-pushpin</styleUrl>
			<Point>
				<gx:drawOrder>1</gx:drawOrder>
				<coordinates>39.16124595998913,-4.736830497659449,0</coordinates>
			</Point>
		</Placemark>
		<Placemark>
			<name>Moa</name>
			<LookAt>
				<longitude>39.22500073563309</longitude>
				<latitude>-4.741798940031617</latitude>
				<altitude>0</altitude>
				<heading>-0.006932669782921685</heading>
				<tilt>2.123047515151181</tilt>
				<range>24178.07634554015</range>
				<gx:altitudeMode>relativeToSeaFloor</gx:altitudeMode>
			</LookAt>
			<styleUrl>#m_ylw-pushpin</styleUrl>
			<Point>
				<gx:drawOrder>1</gx:drawOrder>
				<coordinates>39.17070812296634,-4.768016324632899,0</coordinates>
			</Point>
		</Placemark>
		<atom:link rel="app" href="https://www.google.com/earth/about/versions/#earth-pro" title="Google Earth Pro 7.3.7.1155"></atom:link>
	</Folder>
</Document>
</kml>
